start=new Date('2023-02-06T00:00:00.000Z').valueOf();
sats=[{"PERIOD":"95.438","NORAD_CAT_ID":"50206","RCS_SIZE":"LARGE","MEAN_ELEMENT_THEORY":"SGP4","CLASSIFICATION_TYPE":"U","MEAN_MOTION_DOT":"0.00000734","TLE_LINE1":"1 50206U 21125BC  23036.92962914  .00000734  00000-0  64198-4 0  9996","APOAPSIS":"540.553","EPOCH":"2023-02-05T22:18:39.957696","LAUNCH_DATE":"2021-12-18","SITE":"AFWTR","GP_ID":"224558645","OBJECT_NAME":"STARLINK-3258","COUNTRY_CODE":"US","INCLINATION":"53.2112","MEAN_MOTION":"15.08835524","PERIAPSIS":"538.965","MEAN_MOTION_DDOT":"0.0000000000000","BSTAR":"0.00006419800000","MEAN_ANOMALY":"262.4142","REF_FRAME":"TEME","RA_OF_ASC_NODE":"261.8397","SEMIMAJOR_AXIS":"6917.894","OBJECT_TYPE":"PAYLOAD","TIME_SYSTEM":"UTC","ELEMENT_SET_NO":"999","ECCENTRICITY":"0.00011480","REV_AT_EPOCH":"6440","DECAY_DATE":null,"OBJECT_ID":"2021-125BC","EPHEMERIS_TYPE":"0","FILE":"3774172","CENTER_NAME":"EARTH","TLE_LINE2":"2 50206  53.2112 261.8397 0001148  97.6980 262.4142 15.08835524 64404","ARG_OF_PERICENTER":"97.6980"},{"CLASSIFICATION_TYPE":"U","MEAN_ELEMENT_THEORY":"SGP4","RCS_SIZE":"LARGE","NORAD_CAT_ID":"50207","PERIOD":"95.438","INCLINATION":"53.2144","MEAN_MOTION":"15.08836680","PERIAPSIS":"538.799","COUNTRY_CODE":"US","GP_ID":"224558897","OBJECT_NAME":"STARLINK-3262","SITE":"AFWTR","LAUNCH_DATE":"2021-12-18","APOAPSIS":"540.712","EPOCH":"2023-02-05T22:23:57.950304","MEAN_MOTION_DOT":"0.00000639","TLE_LINE1":"1 50207U 21125BD  23036.93330961  .00000639  00000-0  58237-4 0  9990","DECAY_DATE":null,"OBJECT_ID":"2021-125BD","EPHEMERIS_TYPE":"0","REV_AT_EPOCH":"6447","ELEMENT_SET_NO":"999","ECCENTRICITY":"0.00013820","TIME_SYSTEM":"UTC","SEMIMAJOR_AXIS":"6917.891","OBJECT_TYPE":"PAYLOAD","REF_FRAME":"TEME","RA_OF_ASC_NODE":"261.8189","MEAN_ANOMALY":"274.0881","MEAN_MOTION_DDOT":"0.0000000000000","BSTAR":"0.00005823700000","ARG_OF_PERICENTER":"86.0269","TLE_LINE2":"2 50207  53.2144 261.8189 0001382  86.0269 274.0881 15.08836680 64471","FILE":"3774172","CENTER_NAME":"EARTH"},{"ECCENTRICITY":"0.00012060","ELEMENT_SET_NO":"999","TIME_SYSTEM":"UTC","EPHEMERIS_TYPE":"0","DECAY_DATE":null,"OBJECT_ID":"2022-001A","REV_AT_EPOCH":"6012","MEAN_ANOMALY":"257.9750","BSTAR":"0.00003028900000","MEAN_MOTION_DDOT":"0.0000000000000","SEMIMAJOR_AXIS":"6917.890","OBJECT_TYPE":"PAYLOAD","REF_FRAME":"TEME","RA_OF_ASC_NODE":"192.7828","ARG_OF_PERICENTER":"102.1377","CENTER_NAME":"EARTH","FILE":"3774172","TLE_LINE2":"2 50803  53.2149 192.7828 0001206 102.1377 257.9750 15.08836923 60128","CLASSIFICATION_TYPE":"U","NORAD_CAT_ID":"50803","PERIOD":"95.438","MEAN_ELEMENT_THEORY":"SGP4","RCS_SIZE":"LARGE","COUNTRY_CODE":"US","OBJECT_NAME":"STARLINK-3321","GP_ID":"224558915","MEAN_MOTION":"15.08836923","PERIAPSIS":"538.920","INCLINATION":"53.2149","EPOCH":"2023-02-05T17:15:16.992288","APOAPSIS":"540.589","TLE_LINE1":"1 50803U 22001A   23036.71894667  .00000194  00000-0  30289-4 0  9993","MEAN_MOTION_DOT":"0.00000194","SITE":"AFETR","LAUNCH_DATE":"2022-01-06"},{"SEMIMAJOR_AXIS":"6917.893","OBJECT_TYPE":"PAYLOAD","RA_OF_ASC_NODE":"182.3350","REF_FRAME":"TEME","MEAN_ANOMALY":"267.7351","MEAN_MOTION_DDOT":"0.0000000000000","BSTAR":"0.00002465900000","DECAY_DATE":null,"OBJECT_ID":"2022-001B","EPHEMERIS_TYPE":"0","REV_AT_EPOCH":"6027","ELEMENT_SET_NO":"999","ECCENTRICITY":"0.00011410","TIME_SYSTEM":"UTC","TLE_LINE2":"2 50804  53.2132 182.3350 0001141  92.3772 267.7351 15.08835965 60270","CENTER_NAME":"EARTH","FILE":"3774172","ARG_OF_PERICENTER":"92.3772","MEAN_ELEMENT_THEORY":"SGP4","RCS_SIZE":"LARGE","NORAD_CAT_ID":"50804","PERIOD":"95.438","CLASSIFICATION_TYPE":"U","SITE":"AFETR","LAUNCH_DATE":"2022-01-06","APOAPSIS":"540.547","EPOCH":"2023-02-05T19:39:41.189472","MEAN_MOTION_DOT":"0.00000105","TLE_LINE1":"1 50804U 22001B   23036.81922673  .00000105  00000-0  24659-4 0  9990","INCLINATION":"53.2132","MEAN_MOTION":"15.08835965","PERIAPSIS":"538.968","COUNTRY_CODE":"US","GP_ID":"224559650","OBJECT_NAME":"STARLINK-3323"},{"ARG_OF_PERICENTER":"93.9860","FILE":"3774172","CENTER_NAME":"EARTH","TLE_LINE2":"2 50805  53.2157 182.3442 0001088  93.9860 266.1257 15.08838653 60270","TIME_SYSTEM":"UTC","ECCENTRICITY":"0.00010880","ELEMENT_SET_NO":"999","REV_AT_EPOCH":"6027","EPHEMERIS_TYPE":"0","DECAY_DATE":null,"OBJECT_ID":"2022-001C","BSTAR":"0.00001833200000","MEAN_MOTION_DDOT":"0.0000000000000","MEAN_ANOMALY":"266.1257","REF_FRAME":"TEME","RA_OF_ASC_NODE":"182.3442","SEMIMAJOR_AXIS":"6917.885","OBJECT_TYPE":"PAYLOAD","OBJECT_NAME":"STARLINK-3333","GP_ID":"224558413","COUNTRY_CODE":"US","PERIAPSIS":"538.997","MEAN_MOTION":"15.08838653","INCLINATION":"53.2157","TLE_LINE1":"1 50805U 22001C   23036.81554521  .00000004  00000-0  18332-4 0  9993","MEAN_MOTION_DOT":"0.00000004","EPOCH":"2023-02-05T19:34:23.106144","APOAPSIS":"540.502","LAUNCH_DATE":"2022-01-06","SITE":"AFETR","CLASSIFICATION_TYPE":"U","PERIOD":"95.438","NORAD_CAT_ID":"50805","RCS_SIZE":"LARGE","MEAN_ELEMENT_THEORY":"SGP4"},{"PERIOD":"95.438","NORAD_CAT_ID":"50806","RCS_SIZE":"LARGE","MEAN_ELEMENT_THEORY":"SGP4","CLASSIFICATION_TYPE":"U","MEAN_MOTION_DOT":"-0.00000693","TLE_LINE1":"1 50806U 22001D   23036.81187365 -.00000693  00000-0 -25476-4 0  9995","APOAPSIS":"540.548","EPOCH":"2023-02-05T19:29:05.883360","LAUNCH_DATE":"2022-01-06","SITE":"AFETR","GP_ID":"224558164","OBJECT_NAME":"STARLINK-3335","COUNTRY_CODE":"US","INCLINATION":"53.2177","MEAN_MOTION":"15.08831947","PERIAPSIS":"538.992","MEAN_MOTION_DDOT":"0.0000000000000","BSTAR":"-0.00002547600000","MEAN_ANOMALY":"260.2694","RA_OF_ASC_NODE":"182.3583","REF_FRAME":"TEME","OBJECT_TYPE":"PAYLOAD","SEMIMAJOR_AXIS":"6917.905","TIME_SYSTEM":"UTC","ELEMENT_SET_NO":"999","ECCENTRICITY":"0.00011240","REV_AT_EPOCH":"6027","OBJECT_ID":"2022-001D","DECAY_DATE":null,"EPHEMERIS_TYPE":"0","CENTER_NAME":"EARTH","FILE":"3774172","TLE_LINE2":"2 50806  53.2177 182.3583 0001124  99.8425 260.2694 15.08831947 60271","ARG_OF_PERICENTER":"99.8425"},{"TLE_LINE2":"2 50807  53.2155 182.4262 0001268  88.7580 271.3558 15.08840436 60276","FILE":"3774172","CENTER_NAME":"EARTH","ARG_OF_PERICENTER":"88.7580","OBJECT_TYPE":"PAYLOAD","SEMIMAJOR_AXIS":"6917.879","RA_OF_ASC_NODE":"182.4262","REF_FRAME":"TEME","MEAN_ANOMALY":"271.3558","MEAN_MOTION_DDOT":"0.0000000000000","BSTAR":"0.00004913000000","DECAY_DATE":null,"OBJECT_ID":"2022-001E","EPHEMERIS_TYPE":"0","REV_AT_EPOCH":"6027","ELEMENT_SET_NO":"999","ECCENTRICITY":"0.00012680","TIME_SYSTEM":"UTC","SITE":"AFETR","LAUNCH_DATE":"2022-01-06","APOAPSIS":"540.621","EPOCH":"2023-02-05T19:07:53.364288","MEAN_MOTION_DOT":"0.00000494","TLE_LINE1":"1 50807U 22001E   23036.79714542  .00000494  00000-0  49130-4 0  9996","INCLINATION":"53.2155","PERIAPSIS":"538.867","MEAN_MOTION":"15.08840436","COUNTRY_CODE":"US","GP_ID":"224559414","OBJECT_NAME":"STARLINK-3353","MEAN_ELEMENT_THEORY":"SGP4","RCS_SIZE":"LARGE","NORAD_CAT_ID":"50807","PERIOD":"95.438","CLASSIFICATION_TYPE":"U"},{"NORAD_CAT_ID":"50808","PERIOD":"95.437","MEAN_ELEMENT_THEORY":"SGP4","RCS_SIZE":"LARGE","CLASSIFICATION_TYPE":"U","EPOCH":"2023-02-05T20:53:52.348128","APOAPSIS":"540.627","TLE_LINE1":"1 50808U 22001F   23036.87074477  .00003817  00000-0  25775-3 0  9992","MEAN_MOTION_DOT":"0.00003817","SITE":"AFETR","LAUNCH_DATE":"2022-01-06","COUNTRY_CODE":"US","OBJECT_NAME":"STARLINK-3355","GP_ID":"224559151","PERIAPSIS":"538.823","MEAN_MOTION":"15.08846694","INCLINATION":"53.2144","MEAN_ANOMALY":"260.5180","BSTAR":"0.00025775000000","MEAN_MOTION_DDOT":"0.0000000000000","OBJECT_TYPE":"PAYLOAD","SEMIMAJOR_AXIS":"6917.860","REF_FRAME":"TEME","RA_OF_ASC_NODE":"182.1000","ECCENTRICITY":"0.00013040","ELEMENT_SET_NO":"999","TIME_SYSTEM":"UTC","EPHEMERIS_TYPE":"0","DECAY_DATE":null,"OBJECT_ID":"2022-001F","REV_AT_EPOCH":"6028","FILE":"3774172","CENTER_NAME":"EARTH","TLE_LINE2":"2 50808  53.2144 182.1000 0001304  99.5959 260.5180 15.08846694 60287","ARG_OF_PERICENTER":"99.5959"},{"TLE_LINE2":"2 50809  53.2150 182.9782 0001197  74.3508 285.7616 15.08847471 60255","CENTER_NAME":"EARTH","FILE":"3774172","ARG_OF_PERICENTER":"74.3508","OBJECT_TYPE":"PAYLOAD","SEMIMAJOR_AXIS":"6917.858","REF_FRAME":"TEME","RA_OF_ASC_NODE":"182.9782","MEAN_ANOMALY":"285.7616","MEAN_MOTION_DDOT":"0.0000000000000","BSTAR":"0.00026433000000","DECAY_DATE":null,"OBJECT_ID":"2022-001G","EPHEMERIS_TYPE":"0","REV_AT_EPOCH":"6025","ELEMENT_SET_NO":"999","ECCENTRICITY":"0.00011970","TIME_SYSTEM":"UTC","SITE":"AFETR","LAUNCH_DATE":"2022-01-06","APOAPSIS":"540.551","EPOCH":"2023-02-05T16:13:00.781536","MEAN_MOTION_DOT":"0.00003922","TLE_LINE1":"1 50809U 22001G   23036.67570349  .00003922  00000-0  26433-3 0  9999","INCLINATION":"53.2150","MEAN_MOTION":"15.08847471","PERIAPSIS":"538.894","COUNTRY_CODE":"US","GP_ID":"224557914","OBJECT_NAME":"STARLINK-3232","MEAN_ELEMENT_THEORY":"SGP4","RCS_SIZE":"LARGE","NORAD_CAT_ID":"50809","PERIOD":"95.437","CLASSIFICATION_TYPE":"U"},{"EPHEMERIS_TYPE":"0","DECAY_DATE":null,"OBJECT_ID":"2022-001H","REV_AT_EPOCH":"6028","ECCENTRICITY":"0.00012510","ELEMENT_SET_NO":"999","TIME_SYSTEM":"UTC","SEMIMAJOR_AXIS":"6917.869","OBJECT_TYPE":"PAYLOAD","REF_FRAME":"TEME","RA_OF_ASC_NODE":"182.1122","MEAN_ANOMALY":"266.1376","BSTAR":"0.00006039600000","MEAN_MOTION_DDOT":"0.0000000000000","ARG_OF_PERICENTER":"93.9759","TLE_LINE2":"2 50810  53.2159 182.1122 0001251  93.9759 266.1376 15.08843667 60284","CENTER_NAME":"EARTH","FILE":"3774172","CLASSIFICATION_TYPE":"U","MEAN_ELEMENT_THEORY":"SGP4","RCS_SIZE":"LARGE","NORAD_CAT_ID":"50810","PERIOD":"95.437","PERIAPSIS":"538.869","MEAN_MOTION":"15.08843667","INCLINATION":"53.2159","COUNTRY_CODE":"US","OBJECT_NAME":"STARLINK-3348","GP_ID":"224558664","SITE":"AFETR","LAUNCH_DATE":"2022-01-06","EPOCH":"2023-02-05T20:48:34.308000","APOAPSIS":"540.600","TLE_LINE1":"1 50810U 22001H   23036.86706375  .00000674  00000-0  60396-4 0  9990","MEAN_MOTION_DOT":"0.00000674"}];
